GLOBALSTAR M024         
1 25883U 99043A   24188.89866348 -.00000024  00000+0  14528-2 0  9994
2 25883  52.0021  79.7076 0000920 281.6307 161.8447 11.10156706 76510
GLOBALSTAR M027         
1 25884U 99043B   24188.82868155 -.00000136  00000+0 -27307-2 0  9990
2 25884  52.0185 148.0628 0020895 153.4259 206.7609 11.04368880103083
GLOBALSTAR M054         
1 25885U 99043C   24188.88346686  .00000027  00000+0  25115-2 0  9999
2 25885  52.0163 333.1900 0004271 314.1663 209.3458 11.39206463 79691
GLOBALSTAR M053         
1 25886U 99043D   24188.92795719 -.00000023  00000+0  13328-2 0  9990
2 25886  51.9973 261.0250 0003902 212.3852 319.4131 11.27656656 80496
GLOBALSTAR M050         
1 25908U 99049B   24188.87103260 -.00000064  00000+0  27341-3 0  9995
2 25908  52.0010 344.7205 0009760  67.1378  85.2826 12.07435784106473
GLOBALSTAR M055         
1 25910U 99049D   24188.88939021 -.00000030  00000+0  54842-3 0  9990
2 25910  52.0014 267.9077 0007565 135.2992 224.8470 12.29404038125810
